[{"OBJECT_NAME":"NUSAT-44 (MARIA MITCHELL)","OBJECT_ID":"2024-043AA","EPOCH":"2026-03-09T22:12:18.524160","MEAN_MOTION":15.29764305,"ECCENTRICITY":0.0007331,"INCLINATION":97.5299,"RA_OF_ASC_NODE":207.7691,"ARG_OF_PERICENTER":214.9017,"MEAN_ANOMALY":145.1743,"EPHEMERIS_TYPE":0,"CLASSIFICATION_TYPE":"U","NORAD_CAT_ID":59122,"ELEMENT_SET_NO":999,"REV_AT_EPOCH":11209,"BSTAR":0.00061063193,"MEAN_MOTION_DOT":0.00017562,"MEAN_MOTION_DDOT":0},{"OBJECT_NAME":"STARLINK-34070","OBJECT_ID":"2025-095Z","EPOCH":"2026-03-09T08:00:38.871072","MEAN_MOTION":15.27579271,"ECCENTRICITY":0.00010315,"INCLINATION":42.9995,"RA_OF_ASC_NODE":178.1983,"ARG_OF_PERICENTER":242.774,"MEAN_ANOMALY":117.3007,"EPHEMERIS_TYPE":0,"CLASSIFICATION_TYPE":"U","NORAD_CAT_ID":63913,"ELEMENT_SET_NO":999,"REV_AT_EPOCH":4772,"BSTAR":0.0010984871,"MEAN_MOTION_DOT":0.00030089,"MEAN_MOTION_DDOT":0}]
